<?xml version="1.0" encoding="UTF-8"?>
<kml xmlns="http://www.opengis.net/kml/2.2">
  <Document>
    <name>Zone 1 — Vanves / Clamart</name>
    <description>8 prospects · centroïde 0.5 km Vanves · villes : Vanves, Clamart, Paris 15e, Malakoff, Châtillon · ⭐ = service continu (heure creuse ok)</description>
    <Style id="continuous">
      <IconStyle>
        <scale>1.2</scale>
        <Icon><href>http://maps.google.com/mapfiles/kml/shapes/star.png</href></Icon>
      </IconStyle>
      <LabelStyle><scale>1.0</scale></LabelStyle>
    </Style>
    <Style id="home">
      <IconStyle>
        <scale>1.3</scale>
        <Icon><href>http://maps.google.com/mapfiles/kml/shapes/ranger_station.png</href></Icon>
      </IconStyle>
    </Style>
    <Placemark>
      <name>🏠 Point de départ — Vanves</name>
      <styleUrl>#home</styleUrl>
      <Point><coordinates>2.2913,48.8235,0</coordinates></Point>
    </Placemark>
    <Placemark>
      <name>1. TANDOORI KITCHEN® 🥘🔥</name>
      <description>🍛 Indien · 4.4★ · 100+ avis · Score 5/10 KB

📍 Rue Vieille Forge, Vanves

🕒 HORAIRES (pause service) :
Lun-Dim 11:30-14:30,18:30-23:00

💰 SIGNAUX UE :
• Buy 1 Get 1 Free (brade pour volume)

📍 Google Maps : https://www.google.com/maps/search/?api=1&amp;query=TANDOORI%20KITCHEN%C2%AE%20%F0%9F%A5%98%F0%9F%94%A5%20Rue%20Vieille%20Forge%20Vanves
🔗 Uber Eats : https://www.ubereats.com/fr-en/store/tandoori-kitchen/m715rPdQRlKoTp65V1tMWg</description>
      <Point><coordinates>2.2849429,48.8204728,0</coordinates></Point>
    </Placemark>
    <Placemark>
      <name>2. Tandoori Kitchen</name>
      <description>🍛 Indien · 4.5★ · 700+ avis · Score 4/10 KB

📍 Rue Vieille Forge, Vanves

🕒 HORAIRES (pause service) :
Lun-Dim 11:30-14:30,18:30-23:00

📍 Google Maps : https://www.google.com/maps/search/?api=1&amp;query=Tandoori%20Kitchen%20Rue%20Vieille%20Forge%20Vanves
🔗 Uber Eats : https://www.ubereats.com/fr-en/store/tandoori-kitchen/1ueOtToZS5Wl6NHiCn5inQ</description>
      <Point><coordinates>2.2849429,48.8204728,0</coordinates></Point>
    </Placemark>
    <Placemark>
      <name>3. O Frensh Burger</name>
      <styleUrl>#continuous</styleUrl>
      <description>🍔 Burger · 4.4★ · 200+ avis · Score 4/10 KB

📍 Rue Béranger, Malakoff

🕒 HORAIRES ⭐ SERVICE CONTINU (ok en heure creuse) :
Dim 11:00-16:00
Lun-Sam 11:00-22:00

📍 Google Maps : https://www.google.com/maps/search/?api=1&amp;query=O%20Frensh%20Burger%20Rue%20B%C3%A9ranger%20Malakoff
🔗 Uber Eats : https://www.ubereats.com/fr-en/store/o-frensh-burger/1wbb0PrlTrO2eLDWePpbHQ</description>
      <Point><coordinates>2.3038577,48.8213661,0</coordinates></Point>
    </Placemark>
    <Placemark>
      <name>4. MIU THAÏ N JAP 🇹🇭🍣</name>
      <description>🍜 Thaï · 3.6★ · 280+ avis · Score 2/10 KB

📍 Avenue Pierre Larousse, Malakoff

🕒 HORAIRES (pause service) :
Lun-Jeu 11:45-14:30,18:30-22:30
Ven-Sam 11:45-14:30,18:30-23:00
Dim 18:30-22:30

📍 Google Maps : https://www.google.com/maps/search/?api=1&amp;query=MIU%20THA%C3%8F%20N%20JAP%20%F0%9F%87%B9%F0%9F%87%AD%F0%9F%8D%A3%20Avenue%20Pierre%20Larousse%20Malakoff
🔗 Uber Eats : https://www.ubereats.com/fr-en/store/miu-thai-n-jap/Of6B0GEbTf6K16SPMEqXAg</description>
      <Point><coordinates>2.3044358,48.8212914,0</coordinates></Point>
    </Placemark>
    <Placemark>
      <name>5. The Box Burger</name>
      <styleUrl>#continuous</styleUrl>
      <description>🍔 Burger · 4.3★ · 900+ avis · Score 6/10 KB

📍 Rue Gambetta, Malakoff

🕒 HORAIRES ⭐ SERVICE CONTINU (ok en heure creuse) :
Lun-Jeu 11:30-02:00
Ven 17:00-02:00
Sam 11:30-02:00
Dim 11:30-02:00

📍 Google Maps : https://www.google.com/maps/search/?api=1&amp;query=The%20Box%20Burger%20Rue%20Gambetta%20Malakoff
🔗 Uber Eats : https://www.ubereats.com/fr-en/store/the-box-burger/wAC8wBNmT6iaAaVs6THg2A</description>
      <Point><coordinates>2.3077092,48.8227808,0</coordinates></Point>
    </Placemark>
    <Placemark>
      <name>6. Mumbai Lounge</name>
      <description>🍛 Indien · 4.6★ · 460+ avis · Score 3/10 KB

📍 Boulevard Victor, Paris 15e

🕒 HORAIRES (pause service) :
Lun-Dim 12:00-14:30,18:30-22:45

📍 Google Maps : https://www.google.com/maps/search/?api=1&amp;query=Mumbai%20Lounge%20Boulevard%20Victor%20Paris%2015e
🔗 Uber Eats : https://www.ubereats.com/fr-en/store/mumbai-lounge/BDa3Sxq5TWqVMsSx7hsOew</description>
      <Point><coordinates>2.2848125,48.8343068,0</coordinates></Point>
    </Placemark>
    <Placemark>
      <name>7. Muskan</name>
      <description>🍛 Indien · 4.6★ · 600+ avis · Score 3/10 KB

📍 Avenue Victor Hugo, Clamart

🕒 HORAIRES (pause service) :
Lun-Dim 12:00-14:30,19:00-23:00

📍 Google Maps : https://www.google.com/maps/search/?api=1&amp;query=Muskan%20Avenue%20Victor%20Hugo%20Clamart
🔗 Uber Eats : https://www.ubereats.com/fr-en/store/muskan/j6CiNC0jQbO1b8NvyNjMMA</description>
      <Point><coordinates>2.2716001,48.808744,0</coordinates></Point>
    </Placemark>
    <Placemark>
      <name>8. Le Neuf de Thai</name>
      <description>🍜 Thaï · 4.6★ · 1,500+ avis · Score 2/10 KB

📍 12 Avenue de Paris, Châtillon

🕒 HORAIRES (pause service) :
Lun-Jeu 12:00-14:00,19:00-22:00
Ven,Sam 12:00-14:00,19:00-22:30

📍 Google Maps : https://www.google.com/maps/search/?api=1&amp;query=Le%20Neuf%20de%20Thai%2012%20Avenue%20de%20Paris%20Ch%C3%A2tillon
🔗 Uber Eats : https://www.ubereats.com/fr-en/store/le-neuf-de-thai/mZQEjaH6ROaBQBL_YABIQw</description>
      <Point><coordinates>2.2896818,48.8043894,0</coordinates></Point>
    </Placemark>
  </Document>
</kml>
