<?xml version="1.0" encoding="UTF-8"?>
<kml xmlns="http://www.opengis.net/kml/2.2">
  <Document>
    <name>Zone 2 — Paris 15e</name>
    <description>6 prospects · centroïde 1.9 km Vanves · villes : Paris 15e · ⭐ = service continu (heure creuse ok)</description>
    <Style id="continuous">
      <IconStyle>
        <scale>1.2</scale>
        <Icon><href>http://maps.google.com/mapfiles/kml/shapes/star.png</href></Icon>
      </IconStyle>
      <LabelStyle><scale>1.0</scale></LabelStyle>
    </Style>
    <Style id="home">
      <IconStyle>
        <scale>1.3</scale>
        <Icon><href>http://maps.google.com/mapfiles/kml/shapes/ranger_station.png</href></Icon>
      </IconStyle>
    </Style>
    <Placemark>
      <name>🏠 Point de départ — Vanves</name>
      <styleUrl>#home</styleUrl>
      <Point><coordinates>2.2913,48.8235,0</coordinates></Point>
    </Placemark>
    <Placemark>
      <name>1. Mister Naan</name>
      <styleUrl>#continuous</styleUrl>
      <description>🍛 Indien · 4★ · 100+ avis · Score 6/10 KB

📍 Rue de la Croix Nivert, Paris 15e

🕒 HORAIRES ⭐ SERVICE CONTINU (ok en heure creuse) :
Lun-Dim 11:30-23:45

💰 SIGNAUX UE :
• Promo : €0 Delivery Fee (Spend €15)

📍 Google Maps : https://www.google.com/maps/search/?api=1&amp;query=Mister%20Naan%20Rue%20de%20la%20Croix%20Nivert%20Paris%2015e
🔗 Uber Eats : https://www.ubereats.com/fr-en/store/mister-naan/kF6q1XRPUx27HqPBLG7mzA</description>
      <Point><coordinates>2.2896673,48.8367581,0</coordinates></Point>
    </Placemark>
    <Placemark>
      <name>2. Rasna Restaurant</name>
      <description>🍛 Indien · 4.5★ · 130+ avis · Score 4/10 KB

📍 Rue de la Croix Nivert, Paris 15e

🕒 HORAIRES (pause service) :
Lun-Dim 12:00-14:00,18:30-22:30
Mar 18:30-22:30

📍 Google Maps : https://www.google.com/maps/search/?api=1&amp;query=Rasna%20Restaurant%20Rue%20de%20la%20Croix%20Nivert%20Paris%2015e
🔗 Uber Eats : https://www.ubereats.com/fr-en/store/rasna-restaurant/hLiGCAM6Qem-UlGogi5z5g</description>
      <Point><coordinates>2.2893498,48.8369529,0</coordinates></Point>
    </Placemark>
    <Placemark>
      <name>3. Punjab Palace</name>
      <description>🍛 Indien · 4★ · 420+ avis · Score 6/10 KB

📍 Rue Lecourbe, Paris 15e

🕒 HORAIRES (pause service) :
Lun-Dim 11:45-14:15,18:45-23:15

📍 Google Maps : https://www.google.com/maps/search/?api=1&amp;query=Punjab%20Palace%20Rue%20Lecourbe%20Paris%2015e
🔗 Uber Eats : https://www.ubereats.com/fr-en/store/punjab-palace/badHH4XARJagLYIu8omzwQ</description>
      <Point><coordinates>2.2869331,48.8378481,0</coordinates></Point>
    </Placemark>
    <Placemark>
      <name>4. Panda Gourmet</name>
      <styleUrl>#continuous</styleUrl>
      <description>🍜 Thaï · 4.4★ · 800+ avis · Score 5/10 KB

📍 15 Rue de l&apos;Abbé Groult, Paris 15e

🕒 HORAIRES ⭐ SERVICE CONTINU (ok en heure creuse) :
Lun-Ven 10:45-23:30
Sam 11:00-23:00
Dim 13:00-23:30

💰 SIGNAUX UE :
• Buy 1 Get 1 Free (brade pour volume)

📍 Google Maps : https://www.google.com/maps/search/?api=1&amp;query=Panda%20Gourmet%2015%20Rue%20de%20l&apos;Abb%C3%A9%20Groult%20Paris%2015e
🔗 Uber Eats : https://www.ubereats.com/fr-en/store/panda-gourmet/8WjDSL-vTWOaNX_wjLPtwA</description>
      <Point><coordinates>2.2940141,48.8426505,0</coordinates></Point>
    </Placemark>
    <Placemark>
      <name>5. Al Punjab</name>
      <description>🍛 Indien · 4.6★ · 1,000+ avis · Score 2/10 KB

📍 Rue du Général Beuret, Paris 15e

🕒 HORAIRES (pause service) :
Lun-Sam 11:15-14:30,18:15-23:00
Dim 11:30-14:30,18:15-23:00

📍 Google Maps : https://www.google.com/maps/search/?api=1&amp;query=Al%20Punjab%20Rue%20du%20G%C3%A9n%C3%A9ral%20Beuret%20Paris%2015e
🔗 Uber Eats : https://www.ubereats.com/fr-en/store/al-punjab/exEsjXR-T5Sykj8lWxJLHw</description>
      <Point><coordinates>2.3028352,48.8413805,0</coordinates></Point>
    </Placemark>
    <Placemark>
      <name>6. Mina Mahal</name>
      <description>🍛 Indien · 4.3★ · 150+ avis · Score 6/10 KB

📍 Rue Cambronne, Paris 15e

🕒 HORAIRES (pause service) :
Lun-Dim 11:30-14:30,18:30-23:00

📍 Google Maps : https://www.google.com/maps/search/?api=1&amp;query=Mina%20Mahal%20Rue%20Cambronne%20Paris%2015e
🔗 Uber Eats : https://www.ubereats.com/fr-en/store/mina-mahal/rDCWl6NBQLuZjnZdgyPXDQ</description>
      <Point><coordinates>2.3020712,48.8459668,0</coordinates></Point>
    </Placemark>
  </Document>
</kml>
