<?xml version="1.0" encoding="UTF-8"?>
<kml xmlns="http://www.opengis.net/kml/2.2">
  <Document>
    <name>Zone 6 — Paris 13e / Paris 5e</name>
    <description>13 prospects · centroïde 4.2 km Vanves · villes : Paris 13e, Paris 5e, Paris 14e · ⭐ = service continu (heure creuse ok)</description>
    <Style id="continuous">
      <IconStyle>
        <scale>1.2</scale>
        <Icon><href>http://maps.google.com/mapfiles/kml/shapes/star.png</href></Icon>
      </IconStyle>
      <LabelStyle><scale>1.0</scale></LabelStyle>
    </Style>
    <Style id="home">
      <IconStyle>
        <scale>1.3</scale>
        <Icon><href>http://maps.google.com/mapfiles/kml/shapes/ranger_station.png</href></Icon>
      </IconStyle>
    </Style>
    <Placemark>
      <name>🏠 Point de départ — Vanves</name>
      <styleUrl>#home</styleUrl>
      <Point><coordinates>2.2913,48.8235,0</coordinates></Point>
    </Placemark>
    <Placemark>
      <name>1. La Mia Pizza</name>
      <description>🍕 Pizza · 4.6★ · 280+ avis · Score 3/10 KB

📍 Rue Mouton Duvernet, Paris 14e

🕒 HORAIRES (pause service) :
Lun 12:00-14:30,19:00-23:00
Mar 12:00-14:30
Mer 12:00-14:30,19:00-23:00
Jeu 11:30-14:30,19:00-23:00
Ven 19:00-23:30
Sam 12:30-23:30
Dim 19:00-23:30

📍 Google Maps : https://www.google.com/maps/search/?api=1&amp;query=La%20Mia%20Pizza%20Rue%20Mouton%20Duvernet%20Paris%2014e
🔗 Uber Eats : https://www.ubereats.com/fr-en/store/la-mia-pizza/mfhUyL87QDe6qqYV04LCwQ</description>
      <Point><coordinates>2.3281008,48.8317601,0</coordinates></Point>
    </Placemark>
    <Placemark>
      <name>2. Thai Paragon</name>
      <styleUrl>#continuous</styleUrl>
      <description>🍜 Thaï · 4.6★ · 160+ avis · Score 3/10 KB

📍 Rue Sophie Germain, Paris 14e

🕒 HORAIRES ⭐ SERVICE CONTINU (ok en heure creuse) :
Lun-Ven 12:00-14:30, Lun-Sam 19:00-22:30

📍 Google Maps : https://www.google.com/maps/search/?api=1&amp;query=Thai%20Paragon%20Rue%20Sophie%20Germain%20Paris%2014e
🔗 Uber Eats : https://www.ubereats.com/fr-en/store/thai-paragon/SKtEdUqcTmKDFG2z5tYBfA</description>
      <Point><coordinates>2.3304285,48.8309029,0</coordinates></Point>
    </Placemark>
    <Placemark>
      <name>3. Uno italian pizza</name>
      <description>🍕 Pizza · 4.4★ · 117 avis · Score 4/10 KB

📍 6 Rue Montbrun, Paris 14e

🕒 HORAIRES (pause service) :
Mar-Dim 11:30-14:30, 18:00-23:30

📍 Google Maps : https://www.google.com/maps/search/?api=1&amp;query=Uno%20italian%20pizza%206%20Rue%20Montbrun%20Paris%2014e
🔗 Uber Eats : https://www.ubereats.com/fr-en/store/uno-italian-pizza/tsIVy7jZXnOGVMJhi6mqZw</description>
      <Point><coordinates>2.329955,48.8290259,0</coordinates></Point>
    </Placemark>
    <Placemark>
      <name>4. Pizza Pepino</name>
      <description>🍕 Pizza · 3.8★ · 500+ avis · Score 6/10 KB

📍 33 Rue de l&apos;Amiral Mouchez, Paris 13e

🕒 HORAIRES (pause service) :
Lun-Sam 10:00-15:30,18:00-23:00
Dim 10:00-15:00

📍 Google Maps : https://www.google.com/maps/search/?api=1&amp;query=Pizza%20Pepino%2033%20Rue%20de%20l&apos;Amiral%20Mouchez%20Paris%2013e
🔗 Uber Eats : https://www.ubereats.com/fr-en/store/pizza-pepino/Xg_cRJnDS06RG-ZpRtli-A</description>
      <Point><coordinates>2.3416177,48.8239465,0</coordinates></Point>
    </Placemark>
    <Placemark>
      <name>5. Saveurs d&apos;Himalaya</name>
      <description>🍛 Indien · 4.3★ · 2,000+ avis · Score 5/10 KB

📍 Rue Boussingault, Paris 13e

🕒 HORAIRES (pause service) :
Lun-Dim 11:30-15:00,18:00-23:15

📍 Google Maps : https://www.google.com/maps/search/?api=1&amp;query=Saveurs%20d&apos;Himalaya%20Rue%20Boussingault%20Paris%2013e
🔗 Uber Eats : https://www.ubereats.com/fr-en/store/saveurs-dhimalaya/CmLoZJEDTjmKvMblJYcHMA</description>
      <Point><coordinates>2.3450583,48.8237982,0</coordinates></Point>
    </Placemark>
    <Placemark>
      <name>6. Viet Thai</name>
      <description>🍜 Thaï · 4.5★ · 110+ avis · Score 4/10 KB

📍 201 Avenue de Choisy, Paris 13e

🕒 HORAIRES (pause service) :
Jours fériés,Jeu-Mar 12:00-15:00,18:00-23:00

📍 Google Maps : https://www.google.com/maps/search/?api=1&amp;query=Viet%20Thai%20201%20Avenue%20de%20Choisy%20Paris%2013e
🔗 Uber Eats : https://www.ubereats.com/fr-en/store/viet-thai/M-lb5tsRVuyIrUdst3xonw</description>
      <Point><coordinates>2.3567821,48.8298639,0</coordinates></Point>
    </Placemark>
    <Placemark>
      <name>7. Pâtes Thaï</name>
      <styleUrl>#continuous</styleUrl>
      <description>🍜 Thaï · 4.4★ · 200+ avis · Score 4/10 KB

📍 Rue Primatice, Paris 13e

🕒 HORAIRES ⭐ SERVICE CONTINU (ok en heure creuse) :
Lun-Dim 11:30-22:15

📍 Google Maps : https://www.google.com/maps/search/?api=1&amp;query=P%C3%A2tes%20Tha%C3%AF%20Rue%20Primatice%20Paris%2013e
🔗 Uber Eats : https://www.ubereats.com/fr-en/store/pates-thai/cNU2fS15Sxyea5KF3Z04Rg</description>
      <Point><coordinates>2.3554509,48.8336442,0</coordinates></Point>
    </Placemark>
    <Placemark>
      <name>8. Royal Kashmir</name>
      <description>🍛 Indien · 4.2★ · 2,000+ avis · Score 7/10 KB

📍 Villa des Gobelins, Paris 13e

🕒 HORAIRES (pause service) :
Lun-Dim 11:30-15:00,15:00-05:01

💰 SIGNAUX UE :
• Buy 1 Get 1 Free (brade pour volume)

📍 Google Maps : https://www.google.com/maps/search/?api=1&amp;query=Royal%20Kashmir%20Villa%20des%20Gobelins%20Paris%2013e
🔗 Uber Eats : https://www.ubereats.com/fr-en/store/royal-kashmir/TgcHTC9cQVyZ5SwZeztvNQ</description>
      <Point><coordinates>2.3534995,48.8339125,0</coordinates></Point>
    </Placemark>
    <Placemark>
      <name>9. Il était un burger 🍔</name>
      <styleUrl>#continuous</styleUrl>
      <description>🍔 Burger · 4.6★ · 1,000+ avis · Score 3/10 KB

📍 Rue Mouffetard, Paris 5e

🕒 HORAIRES ⭐ SERVICE CONTINU (ok en heure creuse) :
Lun-Jeu 12:00-22:30
Ven 18:00-23:30
Sam 12:00-23:30
Dim 12:00-22:30

💰 SIGNAUX UE :
• Save on Select Items (promos multiples)

📍 Google Maps : https://www.google.com/maps/search/?api=1&amp;query=Il%20%C3%A9tait%20un%20burger%20%F0%9F%8D%94%20Rue%20Mouffetard%20Paris%205e
🔗 Uber Eats : https://www.ubereats.com/fr-en/store/il-etait-un-burger/_6XYsKT7UZObF_qXMATaPQ</description>
      <Point><coordinates>2.3496819,48.8423863,0</coordinates></Point>
    </Placemark>
    <Placemark>
      <name>10. Joe Burger</name>
      <description>🍔 Burger · 4.5★ · 300+ avis · Score 4/10 KB

📍 Rue Descartes, Paris 5e

🕒 HORAIRES (pause service) :
Lun-Sam 12:00-15:00,19:00-22:30
Dim 12:00-15:00,19:00-21:45

📍 Google Maps : https://www.google.com/maps/search/?api=1&amp;query=Joe%20Burger%20Rue%20Descartes%20Paris%205e
🔗 Uber Eats : https://www.ubereats.com/fr-en/store/joe-burger/18jEWPZjRLeluwxX1TUvJA</description>
      <Point><coordinates>2.3492229,48.8451465,0</coordinates></Point>
    </Placemark>
    <Placemark>
      <name>11. Wad Thai</name>
      <description>🍜 Thaï · 4.3★ · 900+ avis · Score 6/10 KB

📍 Placette Jacqueline-de-Romilly, Paris 5e

🕒 HORAIRES (pause service) :
Lun-Sam 12:00-14:30,19:00-23:00

📍 Google Maps : https://www.google.com/maps/search/?api=1&amp;query=Wad%20Thai%20Placette%20Jacqueline-de-Romilly%20Paris%205e
🔗 Uber Eats : https://www.ubereats.com/fr-en/store/wad-thai/k2VFbZKrQwqpjyxnls0E0Q</description>
      <Point><coordinates>2.3485996,48.8471077,0</coordinates></Point>
    </Placemark>
    <Placemark>
      <name>12. Dolce Pizza</name>
      <description>🍕 Pizza · 4.5★ · 1,000+ avis · Score 3/10 KB

📍 Rue Saint-Jacques, Paris 5e

🕒 HORAIRES (pause service) :
Lun 11:30-15:00,18:30-22:00
Mar-Sam 11:30-04:00
Dim 11:30-04:00

📍 Google Maps : https://www.google.com/maps/search/?api=1&amp;query=Dolce%20Pizza%20Rue%20Saint-Jacques%20Paris%205e
🔗 Uber Eats : https://www.ubereats.com/fr-en/store/dolce-pizza/q6-gDrj0Q2iFFofULOclUg</description>
      <Point><coordinates>2.3400809,48.8393026,0</coordinates></Point>
    </Placemark>
    <Placemark>
      <name>13. India Gate</name>
      <styleUrl>#continuous</styleUrl>
      <description>🍛 Indien · 4.3★ · 5,000+ avis · Score 4/10 KB

📍 Boulevard de l&apos;Hôpital, Paris 5e

🕒 HORAIRES ⭐ SERVICE CONTINU (ok en heure creuse) :
Lun-Dim 11:30-05:00

💰 SIGNAUX UE :
• Buy 1 Get 1 Free (brade pour volume)

📍 Google Maps : https://www.google.com/maps/search/?api=1&amp;query=India%20Gate%20Boulevard%20de%20l&apos;H%C3%B4pital%20Paris%205e
🔗 Uber Eats : https://www.ubereats.com/fr-en/store/india-gate/Ne7BpODOQfqqxHwSESYUqg</description>
      <Point><coordinates>2.3621386,48.8409097,0</coordinates></Point>
    </Placemark>
  </Document>
</kml>
