<?xml version="1.0" encoding="UTF-8"?>
<kml xmlns="http://www.opengis.net/kml/2.2">
  <Document>
    <name>Zone 7 — Cachan / Villejuif</name>
    <description>8 prospects · centroïde 4.6 km Vanves · villes : Cachan, Villejuif, Arcueil, Bagneux, Antony, Sceaux · ⭐ = service continu (heure creuse ok)</description>
    <Style id="continuous">
      <IconStyle>
        <scale>1.2</scale>
        <Icon><href>http://maps.google.com/mapfiles/kml/shapes/star.png</href></Icon>
      </IconStyle>
      <LabelStyle><scale>1.0</scale></LabelStyle>
    </Style>
    <Style id="home">
      <IconStyle>
        <scale>1.3</scale>
        <Icon><href>http://maps.google.com/mapfiles/kml/shapes/ranger_station.png</href></Icon>
      </IconStyle>
    </Style>
    <Placemark>
      <name>🏠 Point de départ — Vanves</name>
      <styleUrl>#home</styleUrl>
      <Point><coordinates>2.2913,48.8235,0</coordinates></Point>
    </Placemark>
    <Placemark>
      <name>1. Pronto Pizza</name>
      <description>🍕 Pizza · 3.6★ · 240+ avis · Score 2/10 KB

📍 4 Avenue Laplace, Arcueil

🕒 HORAIRES (pause service) :
Lun-Dim 11:00-14:30,18:00-23:30

📍 Google Maps : https://www.google.com/maps/search/?api=1&amp;query=Pronto%20Pizza%204%20Avenue%20Laplace%20Arcueil
🔗 Uber Eats : https://www.ubereats.com/fr-en/store/pronto-pizza/TEqi-pnLSVGfbnJU6APjmQ</description>
      <Point><coordinates>2.3355965,48.807233,0</coordinates></Point>
    </Placemark>
    <Placemark>
      <name>2. Mehman</name>
      <description>🍛 Indien · 4.5★ · 320+ avis · Score 4/10 KB

📍 3 Avenue Louis Georgeon, Cachan

🕒 HORAIRES (pause service) :
Lun-Dim 11:50-14:30,19:00-23:00

📍 Google Maps : https://www.google.com/maps/search/?api=1&amp;query=Mehman%203%20Avenue%20Louis%20Georgeon%20Cachan
🔗 Uber Eats : https://www.ubereats.com/fr-en/store/mehman/HL7d88swS6e9uisu2BuqPQ</description>
      <Point><coordinates>2.337131,48.7923315,0</coordinates></Point>
    </Placemark>
    <Placemark>
      <name>3. Butcher Square</name>
      <description>🍕 Pizza · 4.1★ · 270+ avis · Score 6/10 KB

📍 31 Avenue du Pont Royal, Cachan

🕒 HORAIRES (pause service) :
Lun-Jeu 10:30-15:00,18:00-22:45
Ven-Sam 10:30-15:00,18:00-23:30
Dim 18:00-22:45

📍 Google Maps : https://www.google.com/maps/search/?api=1&amp;query=Butcher%20Square%2031%20Avenue%20du%20Pont%20Royal%20Cachan
🔗 Uber Eats : https://www.ubereats.com/fr-en/store/butcher-square-restauration-italienne-pates-pizza-fraiche-viande-halal/Jvs2C4jNQWiVZ8DQ1qDIeA</description>
      <Point><coordinates>2.3209937,48.7929695,0</coordinates></Point>
    </Placemark>
    <Placemark>
      <name>4. Papa Mario&apos;s Pizza</name>
      <description>🍕 Pizza · 4.4★ · 130+ avis · Score 4/10 KB

📍 232 Avenue Aristide Briand, Bagneux

🕒 HORAIRES (pause service) :
Lun-Jeu 12:00-13:45,18:00-22:30
Ven 18:00-22:30
Sam 12:00-13:45,18:00-22:30
Dim 12:00-13:45,18:00-22:30

📍 Google Maps : https://www.google.com/maps/search/?api=1&amp;query=Papa%20Mario&apos;s%20Pizza%20232%20Avenue%20Aristide%20Briand%20Bagneux
🔗 Uber Eats : https://www.ubereats.com/fr-en/store/papa-marios-pizza-bagneux/YugYdeAWSgy9ZaOQpmE3ug</description>
      <Point><coordinates>2.319984,48.7920488,0</coordinates></Point>
    </Placemark>
    <Placemark>
      <name>5. 272 PIZZA</name>
      <description>🍕 Pizza · 4.4★ · 500+ avis · Score 4/10 KB

📍 Impasse du Pont Royal, Bagneux

🕒 HORAIRES (pause service) :
Lun-Dim 11:30-14:30,18:30-23:59

📍 Google Maps : https://www.google.com/maps/search/?api=1&amp;query=272%20PIZZA%20Impasse%20du%20Pont%20Royal%20Bagneux
🔗 Uber Eats : https://www.ubereats.com/fr-en/store/272-pizza/1fPOvG6zXuO0ArEe5bMInw</description>
      <Point><coordinates>2.3192356,48.7900699,0</coordinates></Point>
    </Placemark>
    <Placemark>
      <name>6. Pizza Fiesta</name>
      <description>🍕 Pizza · 4.5★ · 260+ avis · Score 4/10 KB

📍 8 Place de la Résidence, Antony

🕒 HORAIRES (pause service) :
Lun-Jeu 11:05-14:15,18:00-22:15
Ven-Sam 11:05-14:15,18:00-22:35
Dim 11:30-14:00,18:00-22:15

📍 Google Maps : https://www.google.com/maps/search/?api=1&amp;query=Pizza%20Fiesta%208%20Place%20de%20la%20R%C3%A9sidence%20Antony
🔗 Uber Eats : https://www.ubereats.com/fr-en/store/pizza-fiesta-antony/yiggJBwxQi6VKD3pp0A3IA</description>
      <Point><coordinates>2.3162632,48.7699645,0</coordinates></Point>
    </Placemark>
    <Placemark>
      <name>7. Hk Burger</name>
      <styleUrl>#continuous</styleUrl>
      <description>🍔 Burger · 4.4★ · 150+ avis · Score 5/10 KB

📍 Rue Houdan, Sceaux

🕒 HORAIRES ⭐ SERVICE CONTINU (ok en heure creuse) :
Dim 12:00-22:45
Lun-Sam 11:15-22:45

💰 SIGNAUX UE :
• Save on Select Items (promos multiples)

📍 Google Maps : https://www.google.com/maps/search/?api=1&amp;query=Hk%20Burger%20Rue%20Houdan%20Sceaux
🔗 Uber Eats : https://www.ubereats.com/fr-en/store/hk-burger/7JFMBybGXw-THIY6DTEI8A</description>
      <Point><coordinates>2.2896068,48.7791078,0</coordinates></Point>
    </Placemark>
    <Placemark>
      <name>8. Maihak Villejuif</name>
      <description>🍛 Indien · 4.5★ · 480+ avis · Score 4/10 KB

📍 102 Rue Jean Jaurès, Villejuif

🕒 HORAIRES (pause service) :
Lun-Mar 11:30-14:15,18:30-22:45
Mer-Sam 11:30-14:15,18:30-22:45
Dim 11:30-14:15,18:30-22:45

📍 Google Maps : https://www.google.com/maps/search/?api=1&amp;query=Maihak%20Villejuif%20102%20Rue%20Jean%20Jaur%C3%A8s%20Villejuif
🔗 Uber Eats : https://www.ubereats.com/fr-en/store/maihak-villejuif/b7JztXDmRsqJpnE6nNYplA</description>
      <Point><coordinates>2.3665378,48.7902011,0</coordinates></Point>
    </Placemark>
  </Document>
</kml>
