<?xml version="1.0" encoding="UTF-8"?>
<kml xmlns="http://www.opengis.net/kml/2.2">
  <Document>
    <name>Zone 9 — Saint-Cloud / Suresnes</name>
    <description>7 prospects · centroïde 6.5 km Vanves · villes : Saint-Cloud, Suresnes, Rueil-Malmaison · ⭐ = service continu (heure creuse ok)</description>
    <Style id="continuous">
      <IconStyle>
        <scale>1.2</scale>
        <Icon><href>http://maps.google.com/mapfiles/kml/shapes/star.png</href></Icon>
      </IconStyle>
      <LabelStyle><scale>1.0</scale></LabelStyle>
    </Style>
    <Style id="home">
      <IconStyle>
        <scale>1.3</scale>
        <Icon><href>http://maps.google.com/mapfiles/kml/shapes/ranger_station.png</href></Icon>
      </IconStyle>
    </Style>
    <Placemark>
      <name>🏠 Point de départ — Vanves</name>
      <styleUrl>#home</styleUrl>
      <Point><coordinates>2.2913,48.8235,0</coordinates></Point>
    </Placemark>
    <Placemark>
      <name>1. Asia Yum’s</name>
      <styleUrl>#continuous</styleUrl>
      <description>🍜 Thaï · 4.6★ · 500+ avis · Score 3/10 KB

📍 Rue d&apos;Orléans, Saint-Cloud

🕒 HORAIRES ⭐ SERVICE CONTINU (ok en heure creuse) :
Lun-Sam 11:00-22:00
Dim 11:00-22:00

📍 Google Maps : https://www.google.com/maps/search/?api=1&amp;query=Asia%20Yum%E2%80%99s%20Rue%20d&apos;Orl%C3%A9ans%20Saint-Cloud
🔗 Uber Eats : https://www.ubereats.com/fr-en/store/asia-yums/W9j5mcl5QZOUydAb3V_fRg</description>
      <Point><coordinates>2.2192345,48.8420945,0</coordinates></Point>
    </Placemark>
    <Placemark>
      <name>2. La Boucherie</name>
      <description>🍛 Indien · 4.5★ · 140+ avis · Score 4/10 KB

📍 Rue Jeanne, Saint-Cloud

🕒 Horaires : non renseignés — à vérifier sur place

📍 Google Maps : https://www.google.com/maps/search/?api=1&amp;query=La%20Boucherie%20Rue%20Jeanne%20Saint-Cloud
🔗 Uber Eats : https://www.ubereats.com/fr-en/store/la-boucherie-lourmel/s9nk8xaCVb-OJXmzkilwcg</description>
      <Point><coordinates>2.2192959,48.8426073,0</coordinates></Point>
    </Placemark>
    <Placemark>
      <name>3. La Boucherie</name>
      <description>🍔 Burger · 4.5★ · 140+ avis · Score 4/10 KB

📍 Rue Jeanne, Saint-Cloud

🕒 Horaires : non renseignés — à vérifier sur place

📍 Google Maps : https://www.google.com/maps/search/?api=1&amp;query=La%20Boucherie%20Rue%20Jeanne%20Saint-Cloud
🔗 Uber Eats : https://www.ubereats.com/fr-en/store/la-boucherie-lourmel/s9nk8xaCVb-OJXmzkilwcg?storeSearchQuery=burgers</description>
      <Point><coordinates>2.2192959,48.8426073,0</coordinates></Point>
    </Placemark>
    <Placemark>
      <name>4. Pizza Cloud</name>
      <description>🍕 Pizza · 4.5★ · 250+ avis · Score 4/10 KB

📍 Boulevard Senard, Saint-Cloud

🕒 HORAIRES (pause service) :
Lun-Sam 11:00-13:45,18:00-22:45
Dim 18:00-22:45

📍 Google Maps : https://www.google.com/maps/search/?api=1&amp;query=Pizza%20Cloud%20Boulevard%20Senard%20Saint-Cloud
🔗 Uber Eats : https://www.ubereats.com/fr-en/store/pizza-cloud/2KSiUIJKV8W5aIasPlVoCQ</description>
      <Point><coordinates>2.2212024,48.8518748,0</coordinates></Point>
    </Placemark>
    <Placemark>
      <name>5. Restaurant Basmati</name>
      <styleUrl>#continuous</styleUrl>
      <description>🍛 Indien · 4.4★ · 380+ avis · Score 5/10 KB

📍 Avenue de Sully, Suresnes

🕒 HORAIRES ⭐ SERVICE CONTINU (ok en heure creuse) :
Lun-Dim 11:00-02:00
Lun-Dim 12:00-14:00

💰 SIGNAUX UE :
• Buy 1 Get 1 Free (brade pour volume)

📍 Google Maps : https://www.google.com/maps/search/?api=1&amp;query=Restaurant%20Basmati%20Avenue%20de%20Sully%20Suresnes
🔗 Uber Eats : https://www.ubereats.com/fr-en/store/restaurant-basmati/15-UD1LTWQ-OO0YaGkzP1g</description>
      <Point><coordinates>2.2027058,48.8635012,0</coordinates></Point>
    </Placemark>
    <Placemark>
      <name>6. My Pizza Box</name>
      <description>🍕 Pizza · 4.2★ · 140+ avis · Score 6/10 KB

📍 85 Rue Gallieni, Rueil-Malmaison

🕒 HORAIRES (pause service) :
Lun-Jeu 11:30-14:30,18:00-22:55
Ven 18:00-22:55
Sam 11:30-14:30,18:00-22:55
Dim 11:30-14:30,18:00-22:55

📍 Google Maps : https://www.google.com/maps/search/?api=1&amp;query=My%20Pizza%20Box%2085%20Rue%20Gallieni%20Rueil-Malmaison
🔗 Uber Eats : https://www.ubereats.com/fr-en/store/my-pizza-box/KT14MxCzVvO932TDUo5fcA</description>
      <Point><coordinates>2.2042097,48.865825,0</coordinates></Point>
    </Placemark>
    <Placemark>
      <name>7. Bill&apos;s Burger</name>
      <styleUrl>#continuous</styleUrl>
      <description>🍔 Burger · 4.3★ · 1,500+ avis · Score 6/10 KB

📍 Rue Benoît Malon, Suresnes

🕒 HORAIRES ⭐ SERVICE CONTINU (ok en heure creuse) :
Lun-Ven 11:30-22:45
Sam 12:00-00:30
Dim 12:00-23:45

💰 SIGNAUX UE :
• Save on Select Items (promos multiples)

📍 Google Maps : https://www.google.com/maps/search/?api=1&amp;query=Bill&apos;s%20Burger%20Rue%20Beno%C3%AEt%20Malon%20Suresnes
🔗 Uber Eats : https://www.ubereats.com/fr-en/store/bills-burger-boulogne/7riiuTq5UOOPpTeUn8pEEA</description>
      <Point><coordinates>2.2304808,48.8735658,0</coordinates></Point>
    </Placemark>
  </Document>
</kml>
