<?xml version="1.0" encoding="UTF-8"?>
<kml xmlns="http://www.opengis.net/kml/2.2">
  <Document>
    <name>Zone 8 — Paris 13e / Paris 12e</name>
    <description>11 prospects · centroïde 6.0 km Vanves · villes : Paris 13e, Paris 12e, Ivry-sur-Seine, Villejuif · ⭐ = service continu (heure creuse ok)</description>
    <Style id="continuous">
      <IconStyle>
        <scale>1.2</scale>
        <Icon><href>http://maps.google.com/mapfiles/kml/shapes/star.png</href></Icon>
      </IconStyle>
      <LabelStyle><scale>1.0</scale></LabelStyle>
    </Style>
    <Style id="home">
      <IconStyle>
        <scale>1.3</scale>
        <Icon><href>http://maps.google.com/mapfiles/kml/shapes/ranger_station.png</href></Icon>
      </IconStyle>
    </Style>
    <Placemark>
      <name>🏠 Point de départ — Vanves</name>
      <styleUrl>#home</styleUrl>
      <Point><coordinates>2.2913,48.8235,0</coordinates></Point>
    </Placemark>
    <Placemark>
      <name>1. La Vie Dirty Burgers</name>
      <styleUrl>#continuous</styleUrl>
      <description>🍔 Burger · 4.6★ · 700+ avis · Score 3/10 KB

📍 26 Rue Damesme, Paris 13e

🕒 HORAIRES ⭐ SERVICE CONTINU (ok en heure creuse) :
Lun-Dim 11:30-00:00

📍 Google Maps : https://www.google.com/maps/search/?api=1&amp;query=La%20Vie%20Dirty%20Burgers%2026%20Rue%20Damesme%20Paris%2013e
🔗 Uber Eats : https://www.ubereats.com/fr-en/store/la-vie-dirty-burgers-bagneux/vHu4tTVhVX-2rq1zkIBKfg</description>
      <Point><coordinates>2.3553377,48.8240771,0</coordinates></Point>
    </Placemark>
    <Placemark>
      <name>2. Pizza Pronto</name>
      <description>🍕 Pizza · 4.4★ · 250+ avis · Score 4/10 KB

📍 Boulevard Kellermann, Paris 13e

🕒 HORAIRES (pause service) :
Lun-Sam 11:00-14:30,18:00-22:30
Dim 18:00-22:30

📍 Google Maps : https://www.google.com/maps/search/?api=1&amp;query=Pizza%20Pronto%20Boulevard%20Kellermann%20Paris%2013e
🔗 Uber Eats : https://www.ubereats.com/fr-en/store/pizza-pronto-kellermann/q1c4HeadQfGq8JaLUk60cw</description>
      <Point><coordinates>2.3571489,48.8199882,0</coordinates></Point>
    </Placemark>
    <Placemark>
      <name>3. Rana</name>
      <description>🍛 Indien · 4.6★ · 1,000+ avis · Score 2/10 KB

📍 Allée Éric Chabeur, Paris 13e

🕒 HORAIRES (pause service) :
Dim 11:00-14:30,18:00-23:00
Lun-Ven 11:00-14:30,18:00-23:00
Sam 18:00-23:00

📍 Google Maps : https://www.google.com/maps/search/?api=1&amp;query=Rana%20All%C3%A9e%20%C3%89ric%20Chabeur%20Paris%2013e
🔗 Uber Eats : https://www.ubereats.com/fr-en/store/rana/OnCJ6xI4S_-UvY09Bj450A</description>
      <Point><coordinates>2.3636196,48.8207308,0</coordinates></Point>
    </Placemark>
    <Placemark>
      <name>4. Cheese NAN</name>
      <description>🍛 Indien · 4.2★ · 420+ avis · Score 6/10 KB

📍 3 Rue Baudin, Ivry-sur-Seine

🕒 HORAIRES (pause service) :
Lun-Sam 11:30-15:00,18:00-23:30
Dim 11:30-15:00,18:00-23:30

📍 Google Maps : https://www.google.com/maps/search/?api=1&amp;query=Cheese%20NAN%203%20Rue%20Baudin%20Ivry-sur-Seine
🔗 Uber Eats : https://www.ubereats.com/fr-en/store/cheese-nan-boulogne/MzSMITtHQACjh-c4UetIrw</description>
      <Point><coordinates>2.3737354,48.8176597,0</coordinates></Point>
    </Placemark>
    <Placemark>
      <name>5. Good Thai</name>
      <description>🍜 Thaï · 4.5★ · 200+ avis · Score 4/10 KB

📍 50 Avenue Pierre Semard, Ivry-sur-Seine

🕒 HORAIRES (pause service) :
Dim 11:30-23:59
Lun 18:00-22:30
Mar 11:01-22:30
Mer-Jeu 11:30-14:30,18:00-22:30
Ven 11:30-14:30,18:00-23:30
Sam 11:01-22:30,18:00-23:30

📍 Google Maps : https://www.google.com/maps/search/?api=1&amp;query=Good%20Thai%2050%20Avenue%20Pierre%20Semard%20Ivry-sur-Seine
🔗 Uber Eats : https://www.ubereats.com/fr-en/store/good-thai/lsJwD0ZRWKy6zCg8-wmijA</description>
      <Point><coordinates>2.3805441,48.8188403,0</coordinates></Point>
    </Placemark>
    <Placemark>
      <name>6. Golden chicken</name>
      <styleUrl>#continuous</styleUrl>
      <description>🍛 Indien · 3.6★ · 130+ avis · Score 2/10 KB

📍 Rue de Patay, Paris 13e

🕒 HORAIRES ⭐ SERVICE CONTINU (ok en heure creuse) :
Lun-Dim 10:00-01:30

📍 Google Maps : https://www.google.com/maps/search/?api=1&amp;query=Golden%20chicken%20Rue%20de%20Patay%20Paris%2013e
🔗 Uber Eats : https://www.ubereats.com/fr-en/store/golden-chicken/Rt4bTDpuQji-oi32eav9qw</description>
      <Point><coordinates>2.3763864,48.8245312,0</coordinates></Point>
    </Placemark>
    <Placemark>
      <name>7. Fo Pizza</name>
      <description>🍕 Pizza · 4.4★ · 800+ avis · Score 4/10 KB

📍 25 Rue Françoise Dolto, Paris 13e

🕒 HORAIRES (pause service) :
Lun-Jeu 11:00-14:45,18:00-22:00
Ven 11:00-14:45,18:00-22:30
Sam 18:00-22:30
Dim 18:00-22:00

📍 Google Maps : https://www.google.com/maps/search/?api=1&amp;query=Fo%20Pizza%2025%20Rue%20Fran%C3%A7oise%20Dolto%20Paris%2013e
🔗 Uber Eats : https://www.ubereats.com/fr-en/store/fo-pizza/dnIDQ776TtK9eCv7G2-1cg</description>
      <Point><coordinates>2.3805802,48.8283892,0</coordinates></Point>
    </Placemark>
    <Placemark>
      <name>8. Gfc paris 13</name>
      <styleUrl>#continuous</styleUrl>
      <description>🍛 Indien · 4.3★ · 600+ avis · Score 4/10 KB

📍 73 Quai Panhard et Levassor, Paris 13e

🕒 HORAIRES ⭐ SERVICE CONTINU (ok en heure creuse) :
Lun-Dim 10:00-01:45

💰 SIGNAUX UE :
• Promo : €0 Delivery Fee (Spend €15)

📍 Google Maps : https://www.google.com/maps/search/?api=1&amp;query=Gfc%20paris%2013%2073%20Quai%20Panhard%20et%20Levassor%20Paris%2013e
🔗 Uber Eats : https://www.ubereats.com/fr-en/store/gfc-paris-13/uK8fPqDBQRCchiuH4k6FbQ</description>
      <Point><coordinates>2.3809871,48.8309505,0</coordinates></Point>
    </Placemark>
    <Placemark>
      <name>9. Maison du Naan</name>
      <styleUrl>#continuous</styleUrl>
      <description>🍛 Indien · 4.4★ · 100+ avis · Score 4/10 KB

📍 Rue de Bercy, Paris 12e

🕒 HORAIRES ⭐ SERVICE CONTINU (ok en heure creuse) :
Lun-Dim 11:15-22:40

📍 Google Maps : https://www.google.com/maps/search/?api=1&amp;query=Maison%20du%20Naan%20Rue%20de%20Bercy%20Paris%2012e
🔗 Uber Eats : https://www.ubereats.com/fr-en/store/maison-du-naan/oKFeuHGlUnyiFcSoHQNlJw</description>
      <Point><coordinates>2.3857388,48.83606,0</coordinates></Point>
    </Placemark>
    <Placemark>
      <name>10. Regal Thai</name>
      <description>🍜 Thaï · 4.6★ · 1,500+ avis · Score 2/10 KB

📍 4 Rue Marat, Ivry-sur-Seine

🕒 HORAIRES (pause service) :
Dim-Lun, Ven 18:30-23:30
Mar-Jeu 11:30-14:30, 18:30-23:30
Sam 12:00-15:00, 18:30-23:30

📍 Google Maps : https://www.google.com/maps/search/?api=1&amp;query=Regal%20Thai%204%20Rue%20Marat%20Ivry-sur-Seine
🔗 Uber Eats : https://www.ubereats.com/fr-en/store/regal-thai-cachan/GPaqdoS7R0-NnMJmi24LQA</description>
      <Point><coordinates>2.3845021,48.8107198,0</coordinates></Point>
    </Placemark>
    <Placemark>
      <name>11. MAJESTIC 🍔</name>
      <styleUrl>#continuous</styleUrl>
      <description>🍜 Thaï · 4.2★ · 500+ avis · Score 6/10 KB

📍 Avenue de Paris, Villejuif

🕒 HORAIRES ⭐ SERVICE CONTINU (ok en heure creuse) :
Lun-Dim 09:00-23:00

💰 SIGNAUX UE :
• 48 min livraison (saturé/loin)

📍 Google Maps : https://www.google.com/maps/search/?api=1&amp;query=MAJESTIC%20%F0%9F%8D%94%20Avenue%20de%20Paris%20Villejuif
🔗 Uber Eats : https://www.ubereats.com/fr-en/store/majestic-orly/nSu6c2pSUn6ZIRtBl6elAA</description>
      <Point><coordinates>2.3642009,48.8049061,0</coordinates></Point>
    </Placemark>
  </Document>
</kml>
